{"fetched_at":"2026-03-29T16:36:15Z","count":15609,"tles":[{"name":"STARLINK-6231","line1":"1 56779U 23078N   26087.91824925  .00001023  00000+0  93487-4 0  9997","line2":"2 56779  69.9978 275.9754 0003284 269.0514  91.0269 14.98334937156041","category":"Starlink"}]}